
# Worst residual: 21.10 km
# MJD 58013.000000 (2017 Sep 17  0:00)
2011-037A = Spektr-R = NORAD 37755
1 37755U 11037A   17260.49919926  .00000000  00000-0  00000-0 0    07
2 37755 068.1205 305.4647 6193447 351.7204 296.2319 00.10330169    01

# Worst residual: 41.62 km
# MJD 58014.000000 (2017 Sep 18  0:00)
2011-037A = Spektr-R = NORAD 37755
1 37755U 11037A   17261.49919926  .00000000  00000-0  00000-0 0    08
2 37755 068.0626 305.3774 6219631 351.7667 333.6230 00.10279342    07

# Worst residual: 122.67 km
# MJD 58015.000000 (2017 Sep 19  0:00)
2011-037A = Spektr-R = NORAD 37755
1 37755U 11037A   17262.49919926  .00000000  00000-0  00000-0 0    09
2 37755 068.1891 305.1247 6238029 352.2041 010.4860 00.10250248    02

# Worst residual: 27.80 km
# MJD 58016.000000 (2017 Sep 20  0:00)
2011-037A = Spektr-R = NORAD 37755
1 37755U 11037A   17263.49919926  .00000000  00000-0  00000-0 0    00
2 37755 068.2256 305.3342 6208595 352.1800 047.7662 00.10370271    05

# Worst residual: 12.71 km
# MJD 58017.000000 (2017 Sep 21  0:00)
2011-037A = Spektr-R = NORAD 37755
1 37755U 11037A   17264.49919926  .00000000  00000-0  00000-0 0    01
2 37755 068.2308 305.2870 6209824 352.0590 085.4450 00.10425452    05

# Worst residual: 10.75 km
# MJD 58018.000000 (2017 Sep 22  0:00)
2011-037A = Spektr-R = NORAD 37755
1 37755U 11037A   17265.49919926  .00000000  00000-0  00000-0 0    02
2 37755 068.3316 305.1856 6219545 352.0918 123.0037 00.10440801    08

# Worst residual: 6.03 km
# MJD 58019.000000 (2017 Sep 23  0:00)
2011-037A = Spektr-R = NORAD 37755
1 37755U 11037A   17266.49919926  .00000000  00000-0  00000-0 0    03
2 37755 068.4168 305.1271 6230134 352.1765 160.4635 00.10447111    03

# Worst residual: 1.47 km
# MJD 58020.000000 (2017 Sep 24  0:00)
2011-037A = Spektr-R = NORAD 37755
1 37755U 11037A   17267.49919926  .00000000  00000-0  00000-0 0    04
2 37755 068.4255 305.1045 6238670 352.2695 197.9232 00.10451385    01

# Worst residual: 7.36 km
# MJD 58021.000000 (2017 Sep 25  0:00)
2011-037A = Spektr-R = NORAD 37755
1 37755U 11037A   17268.49919926  .00000000  00000-0  00000-0 0    05
2 37755 068.3797 305.0849 6243117 352.3231 235.5119 00.10449228    07

# Worst residual: 22.41 km
# MJD 58022.000000 (2017 Sep 26  0:00)
2011-037A = Spektr-R = NORAD 37755
1 37755U 11037A   17269.49919926  .00000000  00000-0  00000-0 0    06
2 37755 068.3449 305.0603 6245796 352.2409 273.3641 00.10423103    04

# Worst residual: 63.66 km
# MJD 58023.000000 (2017 Sep 27  0:00)
2011-037A = Spektr-R = NORAD 37755
1 37755U 11037A   17270.49919926  .00000000  00000-0  00000-0 0    08
2 37755 068.3675 305.0559 6265203 351.8571 311.5973 00.10315026    02

# Worst residual: 213.38 km
# MJD 58024.000000 (2017 Sep 28  0:00)
2011-037A = Spektr-R = NORAD 37755
1 37755U 11037A   17271.49919926  .00000000  00000-0  00000-0 0    09
2 37755 068.4289 305.0788 6382681 351.5923 349.6200 00.09946892    00

# Worst residual: 182.21 km
# MJD 58025.000000 (2017 Sep 29  0:00)
2011-037A = Spektr-R = NORAD 37755
1 37755U 11037A   17272.49919926  .00000000  00000-0  00000-0 0    00
2 37755 068.3934 305.1104 6355588 353.2224 025.2564 00.10019417    04

# Worst residual: 49.34 km
# MJD 58026.000000 (2017 Sep 30  0:00)
2011-037A = Spektr-R = NORAD 37755
1 37755U 11037A   17273.49919926  .00000000  00000-0  00000-0 0    01
2 37755 068.3012 305.1878 6275392 352.8495 063.2182 00.10332138    04

# Worst residual: 20.45 km
# MJD 58027.000000 (2017 Oct  1  0:00)
2011-037A = Spektr-R = NORAD 37755
1 37755U 11037A   17274.49919926  .00000000  00000-0  00000-0 0    02
2 37755 068.2370 305.2067 6271725 352.5551 101.2886 00.10417301    07

# Worst residual: 8.95 km
# MJD 58028.000000 (2017 Oct  2  0:00)
2011-037A = Spektr-R = NORAD 37755
1 37755U 11037A   17275.49919926  .00000000  00000-0  00000-0 0    03
2 37755 068.2461 305.1730 6275122 352.5063 139.0997 00.10437747    05

# Worst residual: 8.28 km
# MJD 58029.000000 (2017 Oct  3  0:00)
2011-037A = Spektr-R = NORAD 37755
1 37755U 11037A   17276.49919926  .00000000  00000-0  00000-0 0    04
2 37755 068.3220 305.1297 6275882 352.5823 176.6134 00.10436338    09

# Worst residual: 14.70 km
# MJD 58030.000000 (2017 Oct  4  0:00)
2011-037A = Spektr-R = NORAD 37755
1 37755U 11037A   17277.49919926  .00000000  00000-0  00000-0 0    05
2 37755 068.3898 305.1084 6275304 352.7362 213.8008 00.10434600    07

# Worst residual: 26.96 km
# MJD 58031.000000 (2017 Oct  5  0:00)
2011-037A = Spektr-R = NORAD 37755
1 37755U 11037A   17278.49919926  .00000000  00000-0  00000-0 0    06
2 37755 068.3628 305.0942 6274351 352.9971 250.6763 00.10452136    00

# Worst residual: 46.20 km
# MJD 58032.000000 (2017 Oct  6  0:00)
2011-037A = Spektr-R = NORAD 37755
1 37755U 11037A   17279.49919926  .00000000  00000-0  00000-0 0    07
2 37755 068.2271 305.0406 6266022 353.4237 287.3388 00.10513460    03

# Worst residual: 95.51 km
# MJD 58033.000000 (2017 Oct  7  0:00)
2011-037A = Spektr-R = NORAD 37755
1 37755U 11037A   17280.49919926  .00000000  00000-0  00000-0 0    09
2 37755 068.0728 304.9527 6222746 353.9579 324.0398 00.10672917    02

# Worst residual: 179.74 km
# MJD 58034.000000 (2017 Oct  8  0:00)
2011-037A = Spektr-R = NORAD 37755
1 37755U 11037A   17281.49919926  .00000000  00000-0  00000-0 0    00
2 37755 067.9823 304.9259 6143891 353.2190 002.1997 00.10842041    09

# Worst residual: 95.54 km
# MJD 58035.000000 (2017 Oct  9  0:00)
2011-037A = Spektr-R = NORAD 37755
1 37755U 11037A   17282.49919926  .00000000  00000-0  00000-0 0    01
2 37755 067.9995 304.8134 6238185 352.5144 040.3621 00.10628333    06

# Worst residual: 47.33 km
# MJD 58036.000000 (2017 Oct 10  0:00)
2011-037A = Spektr-R = NORAD 37755
1 37755U 11037A   17283.49919926  .00000000  00000-0  00000-0 0    02
2 37755 068.1229 304.6251 6281759 353.1139 077.0086 00.10457675    04

# Worst residual: 106.51 km
# MJD 58037.000000 (2017 Oct 11  0:00)
2011-037A = Spektr-R = NORAD 37755
1 37755U 11037A   17284.49919926  .00000000  00000-0  00000-0 0    03
2 37755 068.6721 304.2022 6304789 353.6992 113.3123 00.10389812    02

# Worst residual: 255.55 km
# MJD 58038.000000 (2017 Oct 12  0:00)
2011-037A = Spektr-R = NORAD 37755
1 37755U 11037A   17285.49919926  .00000000  00000-0  00000-0 0    04
2 37755 070.2058 303.5763 6464505 354.4313 147.7684 00.10436042    08
